{"fetched_at":"2026-07-13T18:17:00.685Z","source":"https://celestrak.org/NORAD/elements/gp.php?NAME=ICEYE&FORMAT=JSON","constellation":"iceye","records":[{"OBJECT_NAME":"ICEYE-X65","OBJECT_ID":"2025-248H","EPOCH":"2026-07-13T10:49:05.911104","CLASSIFICATION_TYPE":"U","MEAN_MOTION":15.07921769,"ECCENTRICITY":0.0005372,"INCLINATION":45.4057,"RA_OF_ASC_NODE":356.0731,"ARG_OF_PERICENTER":190.0935,"MEAN_ANOMALY":169.9839,"EPHEMERIS_TYPE":0,"NORAD_CAT_ID":66300,"ELEMENT_SET_NO":999,"REV_AT_EPOCH":3948,"BSTAR":0.00013215,"MEAN_MOTION_DOT":0.00001812,"MEAN_MOTION_DDOT":0},{"OBJECT_NAME":"ICEYE-X66","OBJECT_ID":"2025-248J","EPOCH":"2026-07-13T12:23:10.907808","CLASSIFICATION_TYPE":"U","MEAN_MOTION":15.09170285,"ECCENTRICITY":0.0005031,"INCLINATION":45.4024,"RA_OF_ASC_NODE":354.828,"ARG_OF_PERICENTER":186.3508,"MEAN_ANOMALY":173.7311,"EPHEMERIS_TYPE":0,"NORAD_CAT_ID":66301,"ELEMENT_SET_NO":999,"REV_AT_EPOCH":3948,"BSTAR":0.0001347,"MEAN_MOTION_DOT":0.00001922,"MEAN_MOTION_DDOT":0},{"OBJECT_NAME":"ICEYE-X67","OBJECT_ID":"2025-248K","EPOCH":"2026-07-13T11:23:22.644096","CLASSIFICATION_TYPE":"U","MEAN_MOTION":15.09152706,"ECCENTRICITY":0.0006457,"INCLINATION":45.4059,"RA_OF_ASC_NODE":354.6245,"ARG_OF_PERICENTER":185.9763,"MEAN_ANOMALY":174.1043,"EPHEMERIS_TYPE":0,"NORAD_CAT_ID":66302,"ELEMENT_SET_NO":999,"REV_AT_EPOCH":3949,"BSTAR":0.0001192,"MEAN_MOTION_DOT":0.00001671,"MEAN_MOTION_DDOT":0},{"OBJECT_NAME":"ICEYE-X58","OBJECT_ID":"2025-276CP","EPOCH":"2026-07-12T18:33:48.919968","CLASSIFICATION_TYPE":"U","MEAN_MOTION":15.17299977,"ECCENTRICITY":0.00019989,"INCLINATION":97.4196,"RA_OF_ASC_NODE":266.7018,"ARG_OF_PERICENTER":226.7753,"MEAN_ANOMALY":133.3314,"EPHEMERIS_TYPE":0,"NORAD_CAT_ID":66751,"ELEMENT_SET_NO":999,"REV_AT_EPOCH":3429,"BSTAR":0.000085086203,"MEAN_MOTION_DOT":0.00001629,"MEAN_MOTION_DDOT":0},{"OBJECT_NAME":"ICEYE-X59","OBJECT_ID":"2025-276CQ","EPOCH":"2026-07-12T17:53:29.760576","CLASSIFICATION_TYPE":"U","MEAN_MOTION":15.00739965,"ECCENTRICITY":0.00008169,"INCLINATION":97.4386,"RA_OF_ASC_NODE":263.9505,"ARG_OF_PERICENTER":138.949,"MEAN_ANOMALY":221.1796,"EPHEMERIS_TYPE":0,"NORAD_CAT_ID":66752,"ELEMENT_SET_NO":999,"REV_AT_EPOCH":3410,"BSTAR":0.0002382552,"MEAN_MOTION_DOT":0.00002964,"MEAN_MOTION_DDOT":0},{"OBJECT_NAME":"ICEYE-X60","OBJECT_ID":"2025-276CR","EPOCH":"2026-07-12T17:59:00.122208","CLASSIFICATION_TYPE":"U","MEAN_MOTION":15.11136424,"ECCENTRICITY":0.00014809,"INCLINATION":97.42,"RA_OF_ASC_NODE":265.6603,"ARG_OF_PERICENTER":353.8857,"MEAN_ANOMALY":6.2355,"EPHEMERIS_TYPE":0,"NORAD_CAT_ID":66753,"ELEMENT_SET_NO":999,"REV_AT_EPOCH":3422,"BSTAR":0.00019247041,"MEAN_MOTION_DOT":0.00003164,"MEAN_MOTION_DDOT":0},{"OBJECT_NAME":"ICEYE-X61","OBJECT_ID":"2025-276CS","EPOCH":"2026-07-13T04:32:17.356992","CLASSIFICATION_TYPE":"U","MEAN_MOTION":15.1860232,"ECCENTRICITY":0.0001926,"INCLINATION":97.4197,"RA_OF_ASC_NODE":267.1944,"ARG_OF_PERICENTER":224.2534,"MEAN_ANOMALY":135.8547,"EPHEMERIS_TYPE":0,"NORAD_CAT_ID":66754,"ELEMENT_SET_NO":999,"REV_AT_EPOCH":3436,"BSTAR":0.000083186,"MEAN_MOTION_DOT":0.00001654,"MEAN_MOTION_DDOT":0},{"OBJECT_NAME":"ICEYE-X62","OBJECT_ID":"2025-276CT","EPOCH":"2026-07-12T18:34:04.293120","CLASSIFICATION_TYPE":"U","MEAN_MOTION":15.10126973,"ECCENTRICITY":0.00006572,"INCLINATION":97.4194,"RA_OF_ASC_NODE":265.1809,"ARG_OF_PERICENTER":276.9402,"MEAN_ANOMALY":83.1753,"EPHEMERIS_TYPE":0,"NORAD_CAT_ID":66755,"ELEMENT_SET_NO":999,"REV_AT_EPOCH":3419,"BSTAR":0.000069918988,"MEAN_MOTION_DOT":0.00001078,"MEAN_MOTION_DDOT":0},{"OBJECT_NAME":"ICEYE-X71","OBJECT_ID":"2026-067CG","EPOCH":"2026-07-13T11:45:57.981888","CLASSIFICATION_TYPE":"U","MEAN_MOTION":14.91788048,"ECCENTRICITY":0.0001149,"INCLINATION":97.7625,"RA_OF_ASC_NODE":152.3236,"ARG_OF_PERICENTER":353.8448,"MEAN_ANOMALY":6.2757,"EPHEMERIS_TYPE":0,"NORAD_CAT_ID":68494,"ELEMENT_SET_NO":999,"REV_AT_EPOCH":1564,"BSTAR":0.00014897,"MEAN_MOTION_DOT":0.00001446,"MEAN_MOTION_DDOT":0},{"OBJECT_NAME":"ICEYE-X73","OBJECT_ID":"2026-067CJ","EPOCH":"2026-07-13T10:50:12.592032","CLASSIFICATION_TYPE":"U","MEAN_MOTION":14.92344262,"ECCENTRICITY":0.0001345,"INCLINATION":97.762,"RA_OF_ASC_NODE":152.37,"ARG_OF_PERICENTER":151.4511,"MEAN_ANOMALY":208.6781,"EPHEMERIS_TYPE":0,"NORAD_CAT_ID":68496,"ELEMENT_SET_NO":999,"REV_AT_EPOCH":1564,"BSTAR":0.00012607,"MEAN_MOTION_DOT":0.00001233,"MEAN_MOTION_DDOT":0},{"OBJECT_NAME":"ICEYE-X75","OBJECT_ID":"2026-067CK","EPOCH":"2026-07-13T10:56:22.348608","CLASSIFICATION_TYPE":"U","MEAN_MOTION":14.92171995,"ECCENTRICITY":0.0001263,"INCLINATION":97.7605,"RA_OF_ASC_NODE":152.3421,"ARG_OF_PERICENTER":147.5387,"MEAN_ANOMALY":212.591,"EPHEMERIS_TYPE":0,"NORAD_CAT_ID":68497,"ELEMENT_SET_NO":999,"REV_AT_EPOCH":1564,"BSTAR":0.000044787,"MEAN_MOTION_DOT":0.000004,"MEAN_MOTION_DDOT":0},{"OBJECT_NAME":"ICEYE-X74","OBJECT_ID":"2026-067CN","EPOCH":"2026-07-13T10:08:07.965888","CLASSIFICATION_TYPE":"U","MEAN_MOTION":14.91788138,"ECCENTRICITY":0.0000981,"INCLINATION":97.7633,"RA_OF_ASC_NODE":152.2667,"ARG_OF_PERICENTER":351.811,"MEAN_ANOMALY":8.3093,"EPHEMERIS_TYPE":0,"NORAD_CAT_ID":68500,"ELEMENT_SET_NO":999,"REV_AT_EPOCH":1563,"BSTAR":0.00014878,"MEAN_MOTION_DOT":0.00001444,"MEAN_MOTION_DDOT":0},{"OBJECT_NAME":"ICEYE-X76","OBJECT_ID":"2026-067CQ","EPOCH":"2026-07-13T11:38:44.157120","CLASSIFICATION_TYPE":"U","MEAN_MOTION":14.91748501,"ECCENTRICITY":0.000066,"INCLINATION":97.7639,"RA_OF_ASC_NODE":152.3467,"ARG_OF_PERICENTER":333.8197,"MEAN_ANOMALY":26.2988,"EPHEMERIS_TYPE":0,"NORAD_CAT_ID":68502,"ELEMENT_SET_NO":999,"REV_AT_EPOCH":1564,"BSTAR":0.000062917,"MEAN_MOTION_DOT":0.00000578,"MEAN_MOTION_DDOT":0}]}
